STARLINK-36448          
1 67354U 26003W   26022.25003472 -.01743531  00000+0 -11474-1 0  9994
2 67354  42.9988 134.6556 0001327 262.9296 349.1642 15.77638681  3202
STARLINK-36477          
1 67355U 26003X   26022.25003472 -.01738282  00000+0 -11400-1 0  9991
2 67355  42.9986 134.6660 0001316 268.2624 339.8110 15.77706031  3198
STARLINK-36429          
1 67356U 26003Y   26022.25003472 -.01748043  00000+0 -11490-1 0  9997
2 67356  42.9987 134.6607 0001293 274.1933 335.8991 15.77672933  3190
STARLINK-36456          
1 67357U 26003Z   26022.25003472 -.01754574  00000+0 -11594-1 0  9999
2 67357  42.9987 134.6499 0001449 274.2531 339.9487 15.77566105  3208
STARLINK-36466          
1 67358U 26003AA  26022.25003472 -.01766424  00000+0 -11732-1 0  9991
2 67358  42.9986 134.6445 0001470 272.4579 343.8987 15.77473692  3202
STARLINK-36499          
1 67359U 26003AB  26022.25003472 -.01686835  00000+0 -11176-1 0  9991
2 67359  42.9984 134.6396 0001300 276.8819 341.5001 15.77392500  3203
STARLINK-36469          
1 67360U 26003AC  26022.25003472 -.01708685  00000+0 -11381-1 0  9999
2 67360  42.9988 134.6342 0001314 268.1535 352.3535 15.77311524  3203
STARLINK-35306          
1 67361U 26003AD  26022.25003472 -.01717018  00000+0 -11462-1 0  9990
2 67361  42.9987 134.6283 0001169 265.2343 357.2699 15.77277614  3149
STARLINK-36428          
1 67362U 26003AE  26022.25003472 -.01728799  00000+0 -11592-1 0  9993
2 67362  42.9986 134.6230 0001266 270.2925 354.3023 15.77199629  3206
SHIJIAN-29B (SJ-29B)    
1 67403U 25315C   26022.09184954 -.00000053  00000+0  00000+0 0  9995
2 67403   3.0266  98.9733 0001052 305.0493 183.5659  1.00269415   229
STARLINK-36484          
1 67404U 26005A   26020.83335648 -.01385048  55019-3 -39585-2 0  9990
2 67404  43.0011 156.5855 0001768 283.2631  23.0433 15.92369012  2447
STARLINK-36452          
1 67405U 26005B   26020.83335648 -.01396800  55907-3 -39815-2 0  9991
2 67405  43.0012 156.5805 0001803 283.7617  24.5468 15.92421826  2449
